{
  "type": "FeatureCollection",
  "name": "neon_aop_field_sites",
  "crs": { "type": "name", "properties": { "name": "urn:ogc:def:crs:OGC:1.3:CRS84" } },
  "features": [
    {
      "type": "Feature",
      "properties": {
        "site_code": "WREF",
        "name": "NEON Wind River Experimental Forest",
        "domain": "D16 - Pacific Northwest",
        "state": "WA",
        "srs": "EPSG:32610",
        "point_density": 35.0,
        "product_id": "DP1.30003.001",
        "years": [2018, 2019, 2021, 2022, 2023]
      },
      "geometry": {
        "type": "Polygon",
        "coordinates": [
          [
            [-122.02, 45.75],
            [-121.85, 45.75],
            [-121.85, 45.92],
            [-122.02, 45.92],
            [-122.02, 45.75]
          ]
        ]
      }
    },
    {
      "type": "Feature",
      "properties": {
        "site_code": "SJER",
        "name": "NEON San Joaquin Experimental Range",
        "domain": "D17 - Pacific Southwest",
        "state": "CA",
        "srs": "EPSG:32611",
        "point_density": 30.0,
        "product_id": "DP1.30003.001",
        "years": [2018, 2019, 2021, 2022, 2023]
      },
      "geometry": {
        "type": "Polygon",
        "coordinates": [
          [
            [-119.78, 37.06],
            [-119.68, 37.06],
            [-119.68, 37.15],
            [-119.78, 37.15],
            [-119.78, 37.06]
          ]
        ]
      }
    },
    {
      "type": "Feature",
      "properties": {
        "site_code": "SOAP",
        "name": "NEON Soaproot Saddle",
        "domain": "D17 - Pacific Southwest",
        "state": "CA",
        "srs": "EPSG:32611",
        "point_density": 32.0,
        "product_id": "DP1.30003.001",
        "years": [2018, 2019, 2021, 2022, 2023]
      },
      "geometry": {
        "type": "Polygon",
        "coordinates": [
          [
            [-119.29, 37.01],
            [-119.21, 37.01],
            [-119.21, 37.08],
            [-119.29, 37.08],
            [-119.29, 37.01]
          ]
        ]
      }
    },
    {
      "type": "Feature",
      "properties": {
        "site_code": "HARV",
        "name": "NEON Harvard Forest",
        "domain": "D01 - Northeast",
        "state": "MA",
        "srs": "EPSG:32618",
        "point_density": 28.0,
        "product_id": "DP1.30003.001",
        "years": [2018, 2019, 2021, 2022, 2023]
      },
      "geometry": {
        "type": "Polygon",
        "coordinates": [
          [
            [-72.25, 42.48],
            [-72.14, 42.48],
            [-72.14, 42.58],
            [-72.25, 42.58],
            [-72.25, 42.48]
          ]
        ]
      }
    },
    {
      "type": "Feature",
      "properties": {
        "site_code": "OSBS",
        "name": "NEON Ordway-Swisher Biological Station",
        "domain": "D03 - Southeast",
        "state": "FL",
        "srs": "EPSG:32617",
        "point_density": 26.0,
        "product_id": "DP1.30003.001",
        "years": [2018, 2019, 2021, 2022, 2023]
      },
      "geometry": {
        "type": "Polygon",
        "coordinates": [
          [
            [-82.04, 29.65],
            [-81.94, 29.65],
            [-81.94, 29.74],
            [-82.04, 29.74],
            [-82.04, 29.65]
          ]
        ]
      }
    }
  ]
}
